{"LON": -78.8293995, "LAT": 35.9571918, "NUMBER": "250", "STREET": "ASHTON                         GLN", "UNIT": NaN, "CITY": "DURHAM", "DISTRICT": NaN, "REGION": NaN, "POSTCODE": "27703", "ID": 125095, "HASH": "3e09a9d0774f8644"}
{"LON": -78.9227566, "LAT": 35.9347986, "NUMBER": "101", "STREET": "VICTORIAN OAKS                 DR", "UNIT": NaN, "CITY": "DURHAM", "DISTRICT": NaN, "REGION": NaN, "POSTCODE": "27713", "ID": 129739, "HASH": "472ef71a3ae83307"}
{"LON": -78.95092170000001, "LAT": 36.011858700000005, "NUMBER": "540", "STREET": "S LASALLE ST", "UNIT": "4332", "CITY": "DURHAM", "DISTRICT": NaN, "REGION": NaN, "POSTCODE": "27705", "ID": 134221, "HASH": "b68efedc22ed6347"}
{"LON": -78.88021529999999, "LAT": 36.0339958, "NUMBER": "809", "STREET": "BERWYN AVE", "UNIT": NaN, "CITY": "DURHAM", "DISTRICT": NaN, "REGION": NaN, "POSTCODE": "27704", "ID": 21968, "HASH": "572b299ec555342c"}
{"LON": -78.8331989, "LAT": 35.9064356, "NUMBER": "517", "STREET": "LANGHORNE DR", "UNIT": NaN, "CITY": "DURHAM", "DISTRICT": NaN, "REGION": NaN, "POSTCODE": "27703", "ID": 232091, "HASH": "a4441a01fcdfd295"}
{"LON": -78.8855021, "LAT": 35.9942583, "NUMBER": "906", "STREET": "HOLLOWAY ST", "UNIT": NaN, "CITY": "DURHAM", "DISTRICT": NaN, "REGION": NaN, "POSTCODE": "27701", "ID": 52858, "HASH": "c3d046cf656eb214"}
{"LON": -78.9088893, "LAT": 35.9873461, "NUMBER": "1025", "STREET": "S DUKE ST", "UNIT": NaN, "CITY": "DURHAM", "DISTRICT": NaN, "REGION": NaN, "POSTCODE": "27707", "ID": 54613, "HASH": "16f4bd04c5b04fdd"}
{"LON": -78.9501702, "LAT": 35.96519489999999, "NUMBER": "3611", "STREET": "UNIVERSITY DR", "UNIT": "6G", "CITY": "DURHAM", "DISTRICT": NaN, "REGION": NaN, "POSTCODE": "27707", "ID": 113149, "HASH": "52ccb7943c197629"}
{"LON": -78.88641159999999, "LAT": 35.9860888, "NUMBER": "106", "STREET": "S BLACKNALL ST", "UNIT": "B", "CITY": "DURHAM", "DISTRICT": NaN, "REGION": NaN, "POSTCODE": "27703", "ID": 110994, "HASH": "b230fc2a85db73c3"}
{"LON": -78.900568, "LAT": 35.9569804, "NUMBER": "904", "STREET": "MEDINA ST", "UNIT": NaN, "CITY": "DURHAM", "DISTRICT": NaN, "REGION": NaN, "POSTCODE": "27707", "ID": 65986, "HASH": "387a2ac41ce1c62b"}
{"LON": -78.9128177, "LAT": 35.8926164, "NUMBER": "1304", "STREET": "SEATON RD", "UNIT": "19", "CITY": "DURHAM", "DISTRICT": NaN, "REGION": NaN, "POSTCODE": "27713", "ID": 95879, "HASH": "903b479a0e0bcc1b"}
{"LON": -78.9434987, "LAT": 35.8874561, "NUMBER": "304", "STREET": "SOUTH BEND                     DR", "UNIT": NaN, "CITY": "DURHAM", "DISTRICT": NaN, "REGION": NaN, "POSTCODE": "27713", "ID": 119407, "HASH": "e38e9b724f130f8e"}
{"LON": -78.9099402, "LAT": 35.8864403, "NUMBER": "106", "STREET": "MONTCLAIR CIR", "UNIT": NaN, "CITY": "DURHAM", "DISTRICT": NaN, "REGION": NaN, "POSTCODE": "27713", "ID": 84645, "HASH": "d4ac61ec65d03feb"}
{"LON": -78.82993259999999, "LAT": 36.0952055, "NUMBER": "4602", "STREET": "TEKNIKA PKWY", "UNIT": NaN, "CITY": "DURHAM", "DISTRICT": NaN, "REGION": NaN, "POSTCODE": "27704", "ID": 97294, "HASH": "a82fb11112dfaa87"}
{"LON": -78.96205440000001, "LAT": 35.9735119, "NUMBER": "3007", "STREET": "PICKETT RD", "UNIT": "104", "CITY": "DURHAM", "DISTRICT": NaN, "REGION": NaN, "POSTCODE": "27705", "ID": 113439, "HASH": "50bacfbf5f293afb"}
{"LON": -78.8855538, "LAT": 35.961284899999995, "NUMBER": "1709", "STREET": "CROWELL ST", "UNIT": NaN, "CITY": "DURHAM", "DISTRICT": NaN, "REGION": NaN, "POSTCODE": "27707", "ID": 64856, "HASH": "b11186b380bd2c5c"}
{"LON": -78.9611089, "LAT": 35.9165001, "NUMBER": "7109", "STREET": "NC 751 HWY", "UNIT": NaN, "CITY": "DURHAM", "DISTRICT": NaN, "REGION": NaN, "POSTCODE": "27707", "ID": 232312, "HASH": "8dcc113d8f0d4e32"}
{"LON": -78.9468181, "LAT": 36.01133170000001, "NUMBER": "8203", "STREET": "MCQUEEN DR", "UNIT": NaN, "CITY": "DURHAM", "DISTRICT": NaN, "REGION": NaN, "POSTCODE": "27705", "ID": 116750, "HASH": "7cb23eece10f11d4"}
{"LON": -78.91193659999999, "LAT": 36.0818158, "NUMBER": "5365", "STREET": "N ROXBORO ST", "UNIT": NaN, "CITY": "DURHAM", "DISTRICT": NaN, "REGION": NaN, "POSTCODE": "27712", "ID": 9137, "HASH": "4a86f48115dd1f29"}
{"LON": -78.8279235, "LAT": 35.938963, "NUMBER": "1012", "STREET": "LEMON DR", "UNIT": NaN, "CITY": "DURHAM", "DISTRICT": NaN, "REGION": NaN, "POSTCODE": "27703", "ID": 38185, "HASH": "1c70ab703dd48e21"}
{"LON": -78.87635959999999, "LAT": 35.9841215, "NUMBER": "202", "STREET": "S GUTHRIE AVE", "UNIT": NaN, "CITY": "DURHAM", "DISTRICT": NaN, "REGION": NaN, "POSTCODE": "27703", "ID": 32270, "HASH": "6bee677e01a3b780"}
{"LON": -78.97200450000001, "LAT": 35.9501728, "NUMBER": "5010", "STREET": "GARRETT RD", "UNIT": "502", "CITY": "DURHAM", "DISTRICT": NaN, "REGION": NaN, "POSTCODE": "27707", "ID": 111608, "HASH": "7783659e46287f1a"}
{"LON": -78.9153089, "LAT": 35.9726979, "NUMBER": "2225", "STREET": "SUMMIT ST", "UNIT": "4", "CITY": "DURHAM", "DISTRICT": NaN, "REGION": NaN, "POSTCODE": "27707", "ID": 111228, "HASH": "d83a93aba84ab98c"}
{"LON": -78.94213570000001, "LAT": 35.9031105, "NUMBER": "6910", "STREET": "FAYETTEVILLE RD", "UNIT": "196", "CITY": "DURHAM", "DISTRICT": NaN, "REGION": NaN, "POSTCODE": "27713", "ID": 98043, "HASH": "d40295114def67b1"}
{"LON": -78.8543366, "LAT": 35.8804195, "NUMBER": "18", "STREET": "WHITESELL WAY", "UNIT": NaN, "CITY": "DURHAM", "DISTRICT": NaN, "REGION": NaN, "POSTCODE": "27703", "ID": 233583, "HASH": "a7815ad4a6e6b46b"}
{"LON": -78.9530772, "LAT": 35.879878000000005, "NUMBER": "104", "STREET": "STUDENT PL", "UNIT": NaN, "CITY": "DURHAM", "DISTRICT": NaN, "REGION": NaN, "POSTCODE": "27713", "ID": 85509, "HASH": "8fab09a53d019b73"}
{"LON": -78.89671059999999, "LAT": 36.0016231, "NUMBER": "207", "STREET": "W CORPORATION ST", "UNIT": NaN, "CITY": "DURHAM", "DISTRICT": NaN, "REGION": NaN, "POSTCODE": "27701", "ID": 50838, "HASH": "bc1e9cac2920379a"}
{"LON": -78.93342990000001, "LAT": 36.055642299999995, "NUMBER": "3000", "STREET": "SUGARWOOD PL", "UNIT": "A", "CITY": "DURHAM", "DISTRICT": NaN, "REGION": NaN, "POSTCODE": "27705", "ID": 14627, "HASH": "90405b53e8324689"}
{"LON": -78.78657220000001, "LAT": 35.9483023, "NUMBER": "1271", "STREET": "WHITE FLINT CIR", "UNIT": NaN, "CITY": "DURHAM", "DISTRICT": NaN, "REGION": NaN, "POSTCODE": "27703", "ID": 231632, "HASH": "d0374e5d70ed4bfd"}
{"LON": -78.8290525, "LAT": 35.9796298, "NUMBER": "203", "STREET": "STONEY CREEK CIR", "UNIT": NaN, "CITY": "DURHAM", "DISTRICT": NaN, "REGION": NaN, "POSTCODE": "27703", "ID": 128564, "HASH": "0ef79f00ecd2549c"}
{"LON": -78.8966417, "LAT": 36.0738652, "NUMBER": "5714", "STREET": "WHIPPOORWILL ST", "UNIT": NaN, "CITY": "DURHAM", "DISTRICT": NaN, "REGION": NaN, "POSTCODE": "27704", "ID": 11206, "HASH": "8d49ab2ce3a9512c"}
{"LON": -78.85917309999999, "LAT": 35.8862612, "NUMBER": "100", "STREET": "NEW MILLENNIUM WAY", "UNIT": NaN, "CITY": "DURHAM", "DISTRICT": NaN, "REGION": NaN, "POSTCODE": "27703", "ID": 133241, "HASH": "519fc11447da3801"}
{"LON": -78.9072963, "LAT": 35.9983791, "NUMBER": "605", "STREET": "W MAIN ST", "UNIT": "223", "CITY": "DURHAM", "DISTRICT": NaN, "REGION": NaN, "POSTCODE": "27701", "ID": 93189, "HASH": "01f4480fe86cd2fa"}
{"LON": -78.8651412, "LAT": 36.128685, "NUMBER": "1217", "STREET": "SUMMERVILLE LN", "UNIT": NaN, "CITY": "DURHAM", "DISTRICT": NaN, "REGION": NaN, "POSTCODE": "27712", "ID": 3079, "HASH": "66f728d17eb5e3bb"}
{"LON": -78.84344540000001, "LAT": 35.936950200000005, "NUMBER": "2337", "STREET": "CHERRY CREEK DR", "UNIT": NaN, "CITY": "DURHAM", "DISTRICT": NaN, "REGION": NaN, "POSTCODE": "27703", "ID": 221222, "HASH": "9b78549a6af9b4a3"}
{"LON": -78.86434140000001, "LAT": 35.973077, "NUMBER": "3007", "STREET": "BRYANT ST", "UNIT": NaN, "CITY": "DURHAM", "DISTRICT": NaN, "REGION": NaN, "POSTCODE": "27703", "ID": 34692, "HASH": "4f29a51590809bd4"}
{"LON": -78.8282303, "LAT": 35.9557169, "NUMBER": "1628", "STREET": "SHERRON RD", "UNIT": NaN, "CITY": "DURHAM", "DISTRICT": NaN, "REGION": NaN, "POSTCODE": "27703", "ID": 36889, "HASH": "154d2b54a90d59e4"}
{"LON": -78.9592912, "LAT": 36.094679, "NUMBER": "6015", "STREET": "KELVIN DR", "UNIT": NaN, "CITY": "DURHAM", "DISTRICT": NaN, "REGION": NaN, "POSTCODE": "27712", "ID": 6432, "HASH": "2784b10c0202c7ba"}
