{"LON": -78.96472920000001, "LAT": 35.8657284, "NUMBER": "201", "STREET": "COLVARD PARK DR", "UNIT": NaN, "CITY": "DURHAM", "DISTRICT": NaN, "REGION": NaN, "POSTCODE": "27713", "ID": 88962, "HASH": "ce52d99365940bbe"}
{"LON": -78.9642587, "LAT": 35.8660339, "NUMBER": "211", "STREET": "COLVARD PARK DR", "UNIT": NaN, "CITY": "DURHAM", "DISTRICT": NaN, "REGION": NaN, "POSTCODE": "27713", "ID": 90106, "HASH": "df3b4ba324b8356e"}
{"LON": -78.94492240000001, "LAT": 35.8677421, "NUMBER": "9902", "STREET": "NC 751 HWY", "UNIT": NaN, "CITY": "DURHAM", "DISTRICT": NaN, "REGION": NaN, "POSTCODE": "27713", "ID": 86059, "HASH": "7b80d1435c4adc12"}
{"LON": -78.945171, "LAT": 35.8688436, "NUMBER": "9824", "STREET": "NC 751 HWY", "UNIT": NaN, "CITY": "DURHAM", "DISTRICT": NaN, "REGION": NaN, "POSTCODE": "27713", "ID": 86052, "HASH": "d289d6ade6086c85"}
{"LON": -78.94670450000001, "LAT": 35.8738178, "NUMBER": "100", "STREET": "SCOTT KING RD", "UNIT": NaN, "CITY": "DURHAM", "DISTRICT": NaN, "REGION": NaN, "POSTCODE": "27713", "ID": 85995, "HASH": "2f7f5c9d34268f16"}
{"LON": -78.9497959, "LAT": 35.875634999999996, "NUMBER": "9415", "STREET": "NC 751 HWY", "UNIT": NaN, "CITY": "DURHAM", "DISTRICT": NaN, "REGION": NaN, "POSTCODE": "27713", "ID": 85999, "HASH": "30ab2293c913b659"}
{"LON": -78.9499733, "LAT": 35.876708799999996, "NUMBER": "8613", "STREET": "FAYETTEVILLE RD", "UNIT": NaN, "CITY": "DURHAM", "DISTRICT": NaN, "REGION": NaN, "POSTCODE": "27713", "ID": 85904, "HASH": "5e454e2539f72729"}
{"LON": -78.95192709999999, "LAT": 35.8768942, "NUMBER": "9310", "STREET": "NC 751 HWY", "UNIT": NaN, "CITY": "DURHAM", "DISTRICT": NaN, "REGION": NaN, "POSTCODE": "27713", "ID": 85891, "HASH": "30838f621dd18e78"}
{"LON": -78.9402763, "LAT": 35.8783201, "NUMBER": "8329", "STREET": "FAYETTEVILLE RD", "UNIT": NaN, "CITY": "DURHAM", "DISTRICT": NaN, "REGION": NaN, "POSTCODE": "27713", "ID": 85641, "HASH": "41601695e342face"}
{"LON": -78.9497005, "LAT": 35.878362700000004, "NUMBER": "8404", "STREET": "FAYETTEVILLE RD", "UNIT": NaN, "CITY": "DURHAM", "DISTRICT": NaN, "REGION": NaN, "POSTCODE": "27713", "ID": 85634, "HASH": "2fbbf851c31df7c3"}
{"LON": -78.9517829, "LAT": 35.8784597, "NUMBER": "415", "STREET": "INTERN WAY", "UNIT": NaN, "CITY": "DURHAM", "DISTRICT": NaN, "REGION": NaN, "POSTCODE": "27713", "ID": 84262, "HASH": "17e80291ce13db80"}
